{
  "type": "FeatureCollection",
  "features": [
    {
      "type": "Feature",
      "properties": {
        "norad_id": 33886,
        "name": "IRIDIUM 33 DEB",
        "group": "iridium-33-debris",
        "lat": -75.79213532812288,
        "lon": -100.2538418277127,
        "alt_km": 771.2469547727005,
        "timestamp": "2025-12-17T09:00:17.532954+00:00",
        "meta_object_name": "IRIDIUM 33 DEB",
        "meta_object_id": "1997-051BF",
        "meta_epoch": "2025-12-17T00:15:50.309280",
        "meta_mean_motion": 14.36057137,
        "meta_eccentricity": 0.00126285,
        "meta_inclination": 86.3828,
        "meta_ra_of_asc_node": 65.4311,
        "meta_arg_of_pericenter": 226.2038,
        "meta_mean_anomaly": 308.2695,
        "meta_ephemeris_type": 0,
        "meta_classification_type": "U",
        "meta_norad_cat_id": 33886,
        "meta_element_set_no": 999,
        "meta_rev_at_epoch": 88113,
        "meta_bstar": 0.00017106964,
        "meta_mean_motion_dot": 5.17e-06,
        "meta_mean_motion_ddot": 0,
        "tle_line1": "1 33886U 97051BF  25351.01099895  .00000517  00000+0  17107-3 0  9998",
        "tle_line2": "2 33886  86.3828  65.4311 0012628 226.2038 308.2695 14.36057137881138"
      },
      "geometry": {
        "type": "Point",
        "coordinates": [
          -100.2538418277127,
          -75.79213532812288
        ]
      }
    },
    {
      "type": "Feature",
      "properties": {
        "norad_id": 33887,
        "name": "IRIDIUM 33 DEB",
        "group": "iridium-33-debris",
        "lat": -31.91329058350675,
        "lon": -176.29840627126802,
        "alt_km": 770.4077998015291,
        "timestamp": "2025-12-17T09:00:17.532964+00:00",
        "meta_object_name": "IRIDIUM 33 DEB",
        "meta_object_id": "1997-051BG",
        "meta_epoch": "2025-12-16T12:33:11.793888",
        "meta_mean_motion": 14.37224432,
        "meta_eccentricity": 0.00048024,
        "meta_inclination": 86.3043,
        "meta_ra_of_asc_node": 1.7618,
        "meta_arg_of_pericenter": 210.6585,
        "meta_mean_anomaly": 274.979,
        "meta_ephemeris_type": 0,
        "meta_classification_type": "U",
        "meta_norad_cat_id": 33887,
        "meta_element_set_no": 999,
        "meta_rev_at_epoch": 88219,
        "meta_bstar": 0.000138268,
        "meta_mean_motion_dot": 4.31e-06,
        "meta_mean_motion_ddot": 0,
        "tle_line1": "1 33887U 97051BG  25350.52305317  .00000431  00000+0  13827-3 0  9993",
        "tle_line2": "2 33887  86.3043   1.7618 0004802 210.6585 274.9790 14.37224432882197"
      },
      "geometry": {
        "type": "Point",
        "coordinates": [
          -176.29840627126802,
          -31.91329058350675
        ]
      }
    },
    {
      "type": "Feature",
      "properties": {
        "norad_id": 33953,
        "name": "IRIDIUM 33 DEB",
        "group": "iridium-33-debris",
        "lat": 9.100627676142933,
        "lon": 52.34810988120405,
        "alt_km": 707.5424474523925,
        "timestamp": "2025-12-17T09:00:17.532974+00:00",
        "meta_object_name": "IRIDIUM 33 DEB",
        "meta_object_id": "1997-051BN",
        "meta_epoch": "2025-12-16T05:10:47.996256",
        "meta_mean_motion": 14.55360619,
        "meta_eccentricity": 0.00182387,
        "meta_inclination": 86.3848,
        "meta_ra_of_asc_node": 52.2709,
        "meta_arg_of_pericenter": 92.3445,
        "meta_mean_anomaly": 326.7114,
        "meta_ephemeris_type": 0,
        "meta_classification_type": "U",
        "meta_norad_cat_id": 33953,
        "meta_element_set_no": 999,
        "meta_rev_at_epoch": 88354,
        "meta_bstar": 0.00077913405,
        "meta_mean_motion_dot": 3.408e-05,
        "meta_mean_motion_ddot": 0,
        "tle_line1": "1 33953U 97051BN  25350.21583329  .00003408  00000+0  77913-3 0  9997",
        "tle_line2": "2 33953  86.3848  52.2709 0018238  92.3445 326.7114 14.55360619883548"
      },
      "geometry": {
        "type": "Point",
        "coordinates": [
          52.34810988120405,
          9.100627676142933
        ]
      }
    },
    {
      "type": "Feature",
      "properties": {
        "norad_id": 33960,
        "name": "IRIDIUM 33 DEB",
        "group": "iridium-33-debris",
        "lat": -46.903484715154185,
        "lon": -76.68744797328496,
        "alt_km": 620.113861845598,
        "timestamp": "2025-12-17T09:00:17.532985+00:00",
        "meta_object_name": "IRIDIUM 33 DEB",
        "meta_object_id": "1997-051BV",
        "meta_epoch": "2025-12-16T20:31:22.067328",
        "meta_mean_motion": 14.85403921,
        "meta_eccentricity": 0.00074534,
        "meta_inclination": 86.2536,
        "meta_ra_of_asc_node": 287.5735,
        "meta_arg_of_pericenter": 55.4935,
        "meta_mean_anomaly": 358.3261,
        "meta_ephemeris_type": 0,
        "meta_classification_type": "U",
        "meta_norad_cat_id": 33960,
        "meta_element_set_no": 999,
        "meta_rev_at_epoch": 88928,
        "meta_bstar": 0.0023777253,
        "meta_mean_motion_dot": 0.00020546,
        "meta_mean_motion_ddot": 0,
        "tle_line1": "1 33960U 97051BV  25350.85511652  .00020546  00000+0  23777-2 0  9995",
        "tle_line2": "2 33960  86.2536 287.5735 0007453  55.4935 358.3261 14.85403921889280"
      },
      "geometry": {
        "type": "Point",
        "coordinates": [
          -76.68744797328496,
          -46.903484715154185
        ]
      }
    },
    {
      "type": "Feature",
      "properties": {
        "norad_id": 33966,
        "name": "IRIDIUM 33 DEB",
        "group": "iridium-33-debris",
        "lat": 39.47667157329462,
        "lon": 47.01690192488608,
        "alt_km": 727.8274729894001,
        "timestamp": "2025-12-17T09:00:17.532995+00:00",
        "meta_object_name": "IRIDIUM 33 DEB",
        "meta_object_id": "1997-051CB",
        "meta_epoch": "2025-12-16T16:50:38.690880",
        "meta_mean_motion": 14.49610629,
        "meta_eccentricity": 0.00079012,
        "meta_inclination": 86.3926,
        "meta_ra_of_asc_node": 44.3273,
        "meta_arg_of_pericenter": 175.1999,
        "meta_mean_anomaly": 312.7455,
        "meta_ephemeris_type": 0,
        "meta_classification_type": "U",
        "meta_norad_cat_id": 33966,
        "meta_element_set_no": 999,
        "meta_rev_at_epoch": 88499,
        "meta_bstar": 0.00040274972,
        "meta_mean_motion_dot": 1.567e-05,
        "meta_mean_motion_ddot": 0,
        "tle_line1": "1 33966U 97051CB  25350.70183670  .00001567  00000+0  40275-3 0  9995",
        "tle_line2": "2 33966  86.3926  44.3273 0007901 175.1999 312.7455 14.49610629884991"
      },
      "geometry": {
        "type": "Point",
        "coordinates": [
          47.01690192488608,
          39.47667157329462
        ]
      }
    },
    {
      "type": "Feature",
      "properties": {
        "norad_id": 34071,
        "name": "IRIDIUM 33 DEB",
        "group": "iridium-33-debris",
        "lat": 75.52163971417606,
        "lon": -178.51638487187108,
        "alt_km": 713.2401263886622,
        "timestamp": "2025-12-17T09:00:17.533005+00:00",
        "meta_object_name": "IRIDIUM 33 DEB",
        "meta_object_id": "1997-051CE",
        "meta_epoch": "2025-12-16T14:18:08.558496",
        "meta_mean_motion": 14.49482686,
        "meta_eccentricity": 0.00100001,
        "meta_inclination": 86.3455,
        "meta_ra_of_asc_node": 16.1526,
        "meta_arg_of_pericenter": 97.4247,
        "meta_mean_anomaly": 262.8094,
        "meta_ephemeris_type": 0,
        "meta_classification_type": "U",
        "meta_norad_cat_id": 34071,
        "meta_element_set_no": 999,
        "meta_rev_at_epoch": 88390,
        "meta_bstar": 0.00047158898,
        "meta_mean_motion_dot": 1.827e-05,
        "meta_mean_motion_ddot": 0,
        "tle_line1": "1 34071U 97051CE  25350.59593239  .00001827  00000+0  47159-3 0  9993",
        "tle_line2": "2 34071  86.3455  16.1526 0010000  97.4247 262.8094 14.49482686883904"
      },
      "geometry": {
        "type": "Point",
        "coordinates": [
          -178.51638487187108,
          75.52163971417606
        ]
      }
    },
    {
      "type": "Feature",
      "properties": {
        "norad_id": 34077,
        "name": "IRIDIUM 33 DEB",
        "group": "iridium-33-debris",
        "lat": -22.865748282206823,
        "lon": -129.00694348682185,
        "alt_km": 689.8644638538735,
        "timestamp": "2025-12-17T09:00:17.533015+00:00",
        "meta_object_name": "IRIDIUM 33 DEB",
        "meta_object_id": "1997-051CL",
        "meta_epoch": "2025-12-16T16:15:17.100000",
        "meta_mean_motion": 14.64880875,
        "meta_eccentricity": 0.00097738,
        "meta_inclination": 86.3859,
        "meta_ra_of_asc_node": 49.7731,
        "meta_arg_of_pericenter": 27.321,
        "meta_mean_anomaly": 97.3185,
        "meta_ephemeris_type": 0,
        "meta_classification_type": "U",
        "meta_norad_cat_id": 34077,
        "meta_element_set_no": 999,
        "meta_rev_at_epoch": 88390,
        "meta_bstar": 0.00072857342,
        "meta_mean_motion_dot": 3.916e-05,
        "meta_mean_motion_ddot": 0,
        "tle_line1": "1 34077U 97051CL  25350.67728125  .00003916  00000+0  72857-3 0  9996",
        "tle_line2": "2 34077  86.3859  49.7731 0009773  27.3210  97.3185 14.64880875883906"
      },
      "geometry": {
        "type": "Point",
        "coordinates": [
          -129.00694348682185,
          -22.865748282206823
        ]
      }
    }
  ]
}